[{"OBJECT_NAME":"STARLINK-5639","OBJECT_ID":"2023-013AL","EPOCH":"2026-03-09T01:11:39.624288","MEAN_MOTION":15.02536291,"ECCENTRICITY":0.00010275,"INCLINATION":43.003,"RA_OF_ASC_NODE":316.7586,"ARG_OF_PERICENTER":271.3719,"MEAN_ANOMALY":88.7006,"EPHEMERIS_TYPE":0,"CLASSIFICATION_TYPE":"U","NORAD_CAT_ID":55365,"ELEMENT_SET_NO":999,"REV_AT_EPOCH":17146,"BSTAR":-3.7624414e-5,"MEAN_MOTION_DOT":-7.12e-6,"MEAN_MOTION_DDOT":0},{"OBJECT_NAME":"FENGYUN 1C DEB","OBJECT_ID":"1999-025CYT","EPOCH":"2026-03-07T13:55:54.215040","MEAN_MOTION":14.53584795,"ECCENTRICITY":0.0265155,"INCLINATION":98.2146,"RA_OF_ASC_NODE":114.8135,"ARG_OF_PERICENTER":36.9946,"MEAN_ANOMALY":324.9212,"EPHEMERIS_TYPE":0,"CLASSIFICATION_TYPE":"U","NORAD_CAT_ID":32350,"ELEMENT_SET_NO":999,"REV_AT_EPOCH":98759,"BSTAR":0.0011205,"MEAN_MOTION_DOT":7.432e-5,"MEAN_MOTION_DDOT":0}]
